{
    "links": {
        "self": "http://www.neowsapp.com/rest/v1/neo/3873153?api_key=iIulBulltgU6a56xZRHN4H3l9WmuAYTsLGpBGhQ2"
    },
    "id": "3873153",
    "neo_reference_id": "3873153",
    "name": "(2019 SH9)",
    "designation": "2019 SH9",
    "nasa_jpl_url": "http://ssd.jpl.nasa.gov/sbdb.cgi?sstr=3873153",
    "absolute_magnitude_h": 27.8,
    "estimated_diameter": {
        "kilometers": {
            "estimated_diameter_min": 0.0073207399,
            "estimated_diameter_max": 0.016369672
        },
        "meters": {
            "estimated_diameter_min": 7.3207398935,
            "estimated_diameter_max": 16.3696720474
        },
        "miles": {
            "estimated_diameter_min": 0.0045488955,
            "estimated_diameter_max": 0.0101716395
        },
        "feet": {
            "estimated_diameter_min": 24.0181762721,
            "estimated_diameter_max": 53.70627484
        }
    },
    "is_potentially_hazardous_asteroid": false,
    "close_approach_data": [
        {
            "close_approach_date": "2019-10-03",
            "close_approach_date_full": "2019-Oct-03 07:31",
            "epoch_date_close_approach": 1570087860000,
            "relative_velocity": {
                "kilometers_per_second": "15.4617453808",
                "kilometers_per_hour": "55662.2833709815",
                "miles_per_hour": "34586.3782423746"
            },
            "miss_distance": {
                "astronomical": "0.0120295003",
                "lunar": "4.6794756167",
                "kilometers": "1799587.622044361",
                "miles": "1118211.8961637418"
            },
            "orbiting_body": "Earth"
        }
    ],
    "orbital_data": {
        "orbit_id": "2",
        "orbit_determination_date": "2020-09-11 07:44:47",
        "first_observation_date": "2019-09-30",
        "last_observation_date": "2019-10-01",
        "data_arc_in_days": 1,
        "observations_used": 15,
        "orbit_uncertainty": "9",
        "minimum_orbit_intersection": ".0037722",
        "jupiter_tisserand_invariant": "3.717",
        "epoch_osculation": "2458757.5",
        "eccentricity": ".595167277619793",
        "semi_major_axis": "1.889529070514498",
        "inclination": "6.156608663704215",
        "ascending_node_longitude": "188.5028466622487",
        "orbital_period": "948.6997667313535",
        "perihelion_distance": ".7649431976329261",
        "perihelion_argument": "250.4228202496004",
        "aphelion_distance": "3.014114943396069",
        "perihelion_time": "2458804.656039120223",
        "mean_anomaly": "342.1058519474818",
        "mean_motion": ".379466731862223",
        "equinox": "J2000",
        "orbit_class": {
            "orbit_class_type": "APO",
            "orbit_class_description": "Near-Earth asteroid orbits which cross the Earth’s orbit similar to that of 1862 Apollo",
            "orbit_class_range": "a (semi-major axis) > 1.0 AU; q (perihelion) < 1.017 AU"
        }
    },
    "is_sentry_object": false
}